IRIDIUM 7               
1 24793U 97020B   24338.83277639  .00001164  00000+0  39697-3 0  9996
2 24793  86.3960 258.7276 0002468  78.0312 282.1161 14.35640705443868
IRIDIUM 4               
1 24796U 97020E   24338.86998114  .00001289  00000+0  43244-3 0  9991
2 24796  86.3959 255.7156 0002374  84.1470 275.9998 14.36554607444429
IRIDIUM 914             
1 24836U 97030A   24338.85871841  .00001550  00000+0  48118-3 0  9999
2 24836  86.3931 264.9141 0003479 108.6490 251.5087 14.40506763579008
IRIDIUM 16              
1 24841U 97030F   24338.87503620  .00001463  00000+0  47405-3 0  9995
2 24841  86.4012 287.3396 0002980  37.9324 322.2083 14.38370476438926
IRIDIUM 911             
1 24842U 97030G   24338.81868129  .00001849  00000+0  50087-3 0  9996
2 24842  86.4441 286.3322 0015742  36.8606 323.3675 14.47163761446826
IRIDIUM 17              
1 24870U 97034B   24338.67188913  .00001367  00000+0  45065-3 0  9996
2 24870  86.3935 316.9985 0001136  45.3447 314.7843 14.37470481435490
IRIDIUM 920             
1 24871U 97034C   24338.86984577  .00001564  00000+0  47858-3 0  9999
2 24871  86.3950 296.5817 0012212  17.4382 342.7234 14.41176836438445
